[
  {
    "zip": "0600000",
    "pref": "北海道",
    "city": "札幌市中央区",
    "addr1": "",
    "addr2": "",
    "name": "",
    "note": "以下に掲載がない場合"
  },
  {
    "zip": "0640941",
    "pref": "北海道",
    "city": "札幌市中央区",
    "addr1": "旭ケ丘",
    "addr2": "",
    "name": "",
    "note": ""
  },
  {
    "zip": "0600042",
    "pref": "北海道",
    "city": "札幌市中央区",
    "addr1": "大通西",
    "addr2": "",
    "name": "",
    "note": "１～１９丁目"
  },
  {
    "zip": "0640820",
    "pref": "北海道",
    "city": "札幌市中央区",
    "addr1": "大通西",
    "addr2": "",
    "name": "",
    "note": "２０～２８丁目"
  },
  {
    "zip": "0800848",
    "pref": "北海道",
    "city": "帯広市",
    "addr1": "自由が丘",
    "addr2": "",
    "name": "",
    "note": "１、２丁目"
  },
  {
    "zip": "0802476",
    "pref": "北海道",
    "city": "帯広市",
    "addr1": "自由が丘",
    "addr2": "",
    "name": "",
    "note": "３～７丁目"
  },
  {
    "zip": "0802469",
    "pref": "北海道",
    "city": "帯広市",
    "addr1": "西十九条南",
    "addr2": "",
    "name": "",
    "note": "１～５丁目"
  },
  {
    "zip": "0800029",
    "pref": "北海道",
    "city": "帯広市",
    "addr1": "西十九条南",
    "addr2": "",
    "name": "",
    "note": "３５～３８、４１、４２丁目"
  },
  {
    "zip": "0802333",
    "pref": "北海道",
    "city": "帯広市",
    "addr1": "美栄町",
    "addr2": "",
    "name": "",
    "note": "西５～８線７９～１１０番地"
  },
  {
    "zip": "0802106",
    "pref": "北海道",
    "city": "帯広市",
    "addr1": "美栄町",
    "addr2": "",
    "name": "",
    "note": "その他"
  },
  {
    "zip": "0984581",
    "pref": "北海道",
    "city": "稚内市",
    "addr1": "抜海村",
    "addr2": "",
    "name": "",
    "note": "上勇知、下勇知、夕来、オネトマナイ"
  },
  {
    "zip": "0970036",
    "pref": "北海道",
    "city": "稚内市",
    "addr1": "抜海村",
    "addr2": "",
    "name": "",
    "note": "クトネベツ"
  },
  {
    "zip": "0720000",
    "pref": "北海道",
    "city": "美唄市",
    "addr1": "",
    "addr2": "",
    "name": "",
    "note": "以下に掲載がない場合"
  },
  {
    "zip": "0682181",
    "pref": "北海道",
    "city": "美唄市",
    "addr1": "光珠内町南",
    "addr2": "",
    "name": "",
    "note": "２７９４－１２番地"
  },
  {
    "zip": "0790167",
    "pref": "北海道",
    "city": "美唄市",
    "addr1": "光珠内町南",
    "addr2": "",
    "name": "",
    "note": "その他"
  },
  {
    "zip": "0660005",
    "pref": "北海道",
    "city": "千歳市",
    "addr1": "協和",
    "addr2": "",
    "name": "",
    "note": "８８－２、２７１－１０、３４３－２、４０４－１、４２７－３、４３１－１２、４４３－６、６０８－２、６４１－８、８１４、８４２－５、１１３７－３、１３９２、１６５７、１７５２番地"
  },
  {
    "zip": "0691182",
    "pref": "北海道",
    "city": "千歳市",
    "addr1": "協和",
    "addr2": "",
    "name": "",
    "note": "その他"
  },
  {
    "zip": "0613774",
    "pref": "北海道",
    "city": "石狩郡当別町",
    "addr1": "川下",
    "addr2": "",
    "name": "",
    "note": "７８２－１３、５３６３－７～８、５３８２－３、５４０５－４、５４０７－５、５４４５～５４４６－４番地"
  },
  {
    "zip": "0482402",
    "pref": "北海道",
    "city": "余市郡仁木町",
    "addr1": "大江",
    "addr2": "",
    "name": "",
    "note": "１丁目、２丁目「６５１、６６２、６６８番地」以外、３丁目５、１３－４、２０、６７８、６８７番地"
  },
  {
    "zip": "0482331",
    "pref": "北海道",
    "city": "余市郡仁木町",
    "addr1": "大江",
    "addr2": "",
    "name": "",
    "note": "２丁目６５１、６６２、６６８番地、３丁目１０３、１１８、２１０、２５４、２６７、３７２、４４４、４６９番地"
  },
  {
    "zip": "0893672",
    "pref": "北海道",
    "city": "中川郡本別町",
    "addr1": "追名牛",
    "addr2": "",
    "name": "",
    "note": "６７－４～１１３－７番地"
  },
  {
    "zip": "0893443",
    "pref": "北海道",
    "city": "中川郡本別町",
    "addr1": "西美里別",
    "addr2": "",
    "name": "",
    "note": "１１３～７９１番地、西活込、西上、西中"
  },
  {
    "zip": "0880874",
    "pref": "北海道",
    "city": "厚岸郡厚岸町",
    "addr1": "門静",
    "addr2": "",
    "name": "",
    "note": "４丁目５５～１１４番地"
  },
  {
    "zip": "0882686",
    "pref": "北海道",
    "city": "標津郡中標津町",
    "addr1": "俣落",
    "addr2": "",
    "name": "",
    "note": "１６２９－１、１６５３－３、１６８４－５、１８８６－２、１８９３、１８９６－２、１８９６－３、１９０６－８、１９３２－２、１９３６、１９３６－２、１９５１－２、１９５６－２、１９６７－２、１９８０－２、１９９７－３、２０００－２、２０００－８、２００３、２０１５－４、２０２３－２、２０３８－２、２２５３－２、２２５３－５、２２５３－２１、２２５３－２４、２２５３－３５、２２５３－６３"
  },
  {
    "zip": "0861844",
    "pref": "北海道",
    "city": "目梨郡羅臼町",
    "addr1": "幌萌町",
    "addr2": "",
    "name": "",
    "note": "４０－１、６２３番地"
  },
  {
    "zip": "0330071",
    "pref": "青森県",
    "city": "上北郡六戸町",
    "addr1": "犬落瀬",
    "addr2": "",
    "name": "",
    "note": "内金矢、内山、岡沼、金沢、金矢、上淋代、木越、権現沢、四木、七百、下久保「１７４を除く」、下淋代、高森、通目木、坪毛沢「２５、６３７、６４１、６４３、６４７を除く」、中屋敷、沼久保、根古橋、堀切沢、南平、柳沢、大曲"
  },
  {
    "zip": "0330072",
    "pref": "青森県",
    "city": "上北郡六戸町",
    "addr1": "折茂",
    "addr2": "",
    "name": "",
    "note": "今熊「２１３～２３４、２４０、２４７、２６２、２６６、２７５、２７７、２８０、２９５、１１９９、１２０６、１５０４を除く」、大原、沖山、上折茂「１－１３、７１－１９２を除く」"
  },
  {
    "zip": "0350003",
    "pref": "青森県",
    "city": "下北郡東通村",
    "addr1": "野牛",
    "addr2": "",
    "name": "",
    "note": "稲崎平３０２番地・３１５番地、トクサ沢"
  },
  {
    "zip": "0200066",
    "pref": "岩手県",
    "city": "盛岡市",
    "addr1": "上田",
    "addr2": "",
    "name": "",
    "note": "１～４丁目、北山"
  },
  {
    "zip": "0282402",
    "pref": "岩手県",
    "city": "宮古市",
    "addr1": "川井",
    "addr2": "",
    "name": "",
    "note": "第９地割～第１１地割"
  },
  {
    "zip": "0282504",
    "pref": "岩手県",
    "city": "宮古市",
    "addr1": "箱石",
    "addr2": "",
    "name": "",
    "note": "第２地割「７０～１３６」～第４地割「３～１１」"
  },
  {
    "zip": "0285102",
    "pref": "岩手県",
    "city": "岩手郡葛巻町",
    "addr1": "葛巻",
    "addr2": "",
    "name": "",
    "note": "第４０地割「５７番地１２５、１７６を除く」～第４５地割"
  },
  {
    "zip": "0295503",
    "pref": "岩手県",
    "city": "和賀郡西和賀町",
    "addr1": "",
    "addr2": "",
    "name": "",
    "note": "穴明２２地割、穴明２３地割"
  },
  {
    "zip": "0295523",
    "pref": "岩手県",
    "city": "和賀郡西和賀町",
    "addr1": "",
    "addr2": "",
    "name": "",
    "note": "越中畑６４地割～越中畑６６地割、桂子沢７５地割、桂子沢７６地割"
  },
  {
    "zip": "0285233",
    "pref": "岩手県",
    "city": "二戸郡一戸町",
    "addr1": "中山",
    "addr2": "",
    "name": "",
    "note": "新田１７－２、３７番地、東火行１番地"
  },
  {
    "zip": "9800000",
    "pref": "宮城県",
    "city": "仙台市青葉区",
    "addr1": "",
    "addr2": "",
    "name": "",
    "note": "以下に掲載がない場合"
  },
  {
    "zip": "9800021",
    "pref": "宮城県",
    "city": "仙台市青葉区",
    "addr1": "中央",
    "addr2": "",
    "name": "",
    "note": "次のビルを除く"
  },
  {
    "zip": "9806190",
    "pref": "宮城県",
    "city": "仙台市青葉区",
    "addr1": "中央アエル",
    "addr2": "",
    "name": "",
    "note": "地階・階層不明"
  },
  {
    "zip": "9806101",
    "pref": "宮城県",
    "city": "仙台市青葉区",
    "addr1": "中央アエル",
    "addr2": "",
    "name": "",
    "note": "１階"
  },
  {
    "zip": "9806102",
    "pref": "宮城県",
    "city": "仙台市青葉区",
    "addr1": "中央アエル",
    "addr2": "",
    "name": "",
    "note": "２階"
  },
  {
    "zip": "9806103",
    "pref": "宮城県",
    "city": "仙台市青葉区",
    "addr1": "中央アエル",
    "addr2": "",
    "name": "",
    "note": "３階"
  },
  {
    "zip": "9806104",
    "pref": "宮城県",
    "city": "仙台市青葉区",
    "addr1": "中央アエル",
    "addr2": "",
    "name": "",
    "note": "４階"
  },
  {
    "zip": "9806105",
    "pref": "宮城県",
    "city": "仙台市青葉区",
    "addr1": "中央アエル",
    "addr2": "",
    "name": "",
    "note": "５階"
  },
  {
    "zip": "9806106",
    "pref": "宮城県",
    "city": "仙台市青葉区",
    "addr1": "中央アエル",
    "addr2": "",
    "name": "",
    "note": "６階"
  },
  {
    "zip": "9806107",
    "pref": "宮城県",
    "city": "仙台市青葉区",
    "addr1": "中央アエル",
    "addr2": "",
    "name": "",
    "note": "７階"
  },
  {
    "zip": "9806108",
    "pref": "宮城県",
    "city": "仙台市青葉区",
    "addr1": "中央アエル",
    "addr2": "",
    "name": "",
    "note": "８階"
  },
  {
    "zip": "9806109",
    "pref": "宮城県",
    "city": "仙台市青葉区",
    "addr1": "中央アエル",
    "addr2": "",
    "name": "",
    "note": "９階"
  },
  {
    "zip": "9806110",
    "pref": "宮城県",
    "city": "仙台市青葉区",
    "addr1": "中央アエル",
    "addr2": "",
    "name": "",
    "note": "１０階"
  },
  {
    "zip": "9800065",
    "pref": "宮城県",
    "city": "仙台市青葉区",
    "addr1": "土樋",
    "addr2": "",
    "name": "",
    "note": "１丁目「１１を除く」"
  },
  {
    "zip": "9880927",
    "pref": "宮城県",
    "city": "気仙沼市",
    "addr1": "唐桑町西舞根",
    "addr2": "",
    "name": "",
    "note": "２００番以上"
  },
  {
    "zip": "0160812",
    "pref": "秋田県",
    "city": "能代市",
    "addr1": "中嶋",
    "addr2": "",
    "name": "",
    "note": "１－９７～１１６"
  },
  {
    "zip": "9996652",
    "pref": "山形県",
    "city": "鶴岡市",
    "addr1": "添川",
    "addr2": "",
    "name": "",
    "note": "渡戸沢「筍沢温泉」"
  },
  {
    "zip": "9995191",
    "pref": "山形県",
    "city": "新庄市",
    "addr1": "十日町",
    "addr2": "",
    "name": "",
    "note": "猫屋敷３２９～３５６"
  },
  {
    "zip": "9900561",
    "pref": "山形県",
    "city": "寒河江市",
    "addr1": "中央工業団地",
    "addr2": "",
    "name": "",
    "note": "１番地"
  },
  {
    "zip": "9910061",
    "pref": "山形県",
    "city": "寒河江市",
    "addr1": "中央工業団地",
    "addr2": "",
    "name": "",
    "note": "その他"
  },
  {
    "zip": "9910801",
    "pref": "山形県",
    "city": "西村山郡大江町",
    "addr1": "左沢",
    "addr2": "",
    "name": "",
    "note": "１５１８－３、１７５０－１～２２２８－１８、２２５５－１～２２５７－２８、２３１６～２３１８、２４３０－１～２４３１－７５"
  },
  {
    "zip": "9995601",
    "pref": "山形県",
    "city": "最上郡真室川町",
    "addr1": "川ノ内",
    "addr2": "",
    "name": "",
    "note": "２～１２８番地、４１９～６１４番地、１７１７番地、三滝、春木"
  },
  {
    "zip": "9960301",
    "pref": "山形県",
    "city": "最上郡大蔵村",
    "addr1": "南山",
    "addr2": "",
    "name": "",
    "note": "４３０番地以上「１７７０－１～２、１８６２－４２、１９２３－５を除く」、大谷地、折渡、鍵金野、金山、滝ノ沢、豊牧、沼の台、肘折、平林"
  },
  {
    "zip": "9790622",
    "pref": "福島県",
    "city": "双葉郡富岡町",
    "addr1": "毛萱",
    "addr2": "",
    "name": "",
    "note": "前川原２３２～２４４、３１１、３１２、３３７～８６２番地〔東京電力福島第二原子力発電所構内〕"
  },
  {
    "zip": "3050802",
    "pref": "茨城県",
    "city": "つくば市",
    "addr1": "立原",
    "addr2": "",
    "name": "",
    "note": "１、２、３"
  },
  {
    "zip": "3192227",
    "pref": "茨城県",
    "city": "常陸大宮市",
    "addr1": "照田",
    "addr2": "",
    "name": "",
    "note": "９１７～１４９０番地"
  },
  {
    "zip": "3212613",
    "pref": "栃木県",
    "city": "日光市",
    "addr1": "藤原",
    "addr2": "",
    "name": "",
    "note": "１０４７～１２６８及び下平"
  },
  {
    "zip": "3230034",
    "pref": "栃木県",
    "city": "小山市",
    "addr1": "神鳥谷",
    "addr2": "",
    "name": "",
    "note": "丁目"
  },
  {
    "zip": "3230827",
    "pref": "栃木県",
    "city": "小山市",
    "addr1": "神鳥谷",
    "addr2": "",
    "name": "",
    "note": "番地"
  },
  {
    "zip": "3771512",
    "pref": "群馬県",
    "city": "吾妻郡嬬恋村",
    "addr1": "大前",
    "addr2": "",
    "name": "",
    "note": "細原２２５９～"
  },
  {
    "zip": "3771405",
    "pref": "群馬県",
    "city": "吾妻郡嬬恋村",
    "addr1": "鎌原",
    "addr2": "",
    "name": "",
    "note": "モロシコ「浅間園」"
  },
  {
    "zip": "3703321",
    "pref": "群馬県",
    "city": "吾妻郡東吾妻町",
    "addr1": "泉沢",
    "addr2": "",
    "name": "",
    "note": "烏帽子「榛名湖畔」、烏帽子国有林７７林班"
  },
  {
    "zip": "2820011",
    "pref": "千葉県",
    "city": "成田市",
    "addr1": "三里塚",
    "addr2": "",
    "name": "",
    "note": "御料牧場・成田国際空港内"
  },
  {
    "zip": "1690052",
    "pref": "東京都",
    "city": "新宿区",
    "addr1": "戸山",
    "addr2": "",
    "name": "",
    "note": "３丁目１８・２１番"
  },
  {
    "zip": "1620051",
    "pref": "東京都",
    "city": "新宿区",
    "addr1": "西早稲田",
    "addr2": "",
    "name": "",
    "note": "２丁目１番１～２３号、２番"
  },
  {
    "zip": "1320013",
    "pref": "東京都",
    "city": "江戸川区",
    "addr1": "江戸川",
    "addr2": "",
    "name": "",
    "note": "１～３丁目、４丁目１～１４番"
  },
  {
    "zip": "1320015",
    "pref": "東京都",
    "city": "江戸川区",
    "addr1": "西瑞江",
    "addr2": "",
    "name": "",
    "note": "３丁目、４丁目３～９番"
  },
  {
    "zip": "1340015",
    "pref": "東京都",
    "city": "江戸川区",
    "addr1": "西瑞江",
    "addr2": "",
    "name": "",
    "note": "４丁目１～２番・１０～２７番、５丁目"
  },
  {
    "zip": "1000301",
    "pref": "東京都",
    "city": "利島村",
    "addr1": "",
    "addr2": "",
    "name": "",
    "note": "利島村一円"
  },
  {
    "zip": "9401172",
    "pref": "新潟県",
    "city": "長岡市",
    "addr1": "釜ケ島",
    "addr2": "",
    "name": "",
    "note": "土手畑・藤場"
  },
  {
    "zip": "9480073",
    "pref": "新潟県",
    "city": "十日町市",
    "addr1": "",
    "addr2": "",
    "name": "",
    "note": "稲荷町（３丁目本通り）、稲荷町三丁目本通り"
  },
  {
    "zip": "9480012",
    "pref": "新潟県",
    "city": "十日町市",
    "addr1": "新座",
    "addr2": "",
    "name": "",
    "note": "第１、２"
  },
  {
    "zip": "9480011",
    "pref": "新潟県",
    "city": "十日町市",
    "addr1": "新座",
    "addr2": "",
    "name": "",
    "note": "第３、４"
  },
  {
    "zip": "9440201",
    "pref": "新潟県",
    "city": "妙高市",
    "addr1": "姫川原",
    "addr2": "",
    "name": "",
    "note": "３８３８～３９８５番地"
  },
  {
    "zip": "9420181",
    "pref": "新潟県",
    "city": "上越市",
    "addr1": "大潟区潟守新田",
    "addr2": "",
    "name": "",
    "note": "５３の１～６０の９番地"
  },
  {
    "zip": "9420091",
    "pref": "新潟県",
    "city": "上越市",
    "addr1": "頸城区西福島",
    "addr2": "",
    "name": "",
    "note": "１～２２５、２２７～２８８、１０６０番地"
  },
  {
    "zip": "9420083",
    "pref": "新潟県",
    "city": "上越市",
    "addr1": "大豆",
    "addr2": "",
    "name": "",
    "note": "１の２、３の２～６、４の２・４・６、１１の１番地"
  },
  {
    "zip": "9496605",
    "pref": "新潟県",
    "city": "南魚沼市",
    "addr1": "青木新田",
    "addr2": "",
    "name": "",
    "note": "６９５、７２９、９９２～１０７４番地"
  },
  {
    "zip": "9380274",
    "pref": "富山県",
    "city": "黒部市",
    "addr1": "宇奈月町音澤",
    "addr2": "",
    "name": "",
    "note": "１０００～"
  },
  {
    "zip": "9380174",
    "pref": "富山県",
    "city": "黒部市",
    "addr1": "宇奈月町音澤",
    "addr2": "",
    "name": "",
    "note": "１～９９９"
  },
  {
    "zip": "9390321",
    "pref": "富山県",
    "city": "射水市",
    "addr1": "流通センター",
    "addr2": "",
    "name": "",
    "note": "青井谷１、２丁目"
  },
  {
    "zip": "9218046",
    "pref": "石川県",
    "city": "金沢市",
    "addr1": "大桑町",
    "addr2": "",
    "name": "",
    "note": "ア、イ、ヰ、ウ、上野、ヲ、オ乙、鐘搗山、上川原、上猫下、ク、ケ、御所谷、小寺山、シ、下上野、下西欠、平、チ、ツ乙、ツ丙、テ、ト、中上野、中尾山、中平、中ノ大平、西ノ山、猫シタイ、ノ、ハ、開、法師山、坊山、マ、鱒川淵、ム、元末、元涌波庚、ヤ、リ、ル、レ乙、レ甲、ロ乙、ロ甲、和"
  },
  {
    "zip": "9200946",
    "pref": "石川県",
    "city": "金沢市",
    "addr1": "大桑町",
    "addr2": "",
    "name": "",
    "note": "カ、コ、サ乙、サ甲、ソ、タ、ツ甲、ナ、メ、ユ、ヨ、ラ、ワ、穴欠、穴淵欠、子、庚、葭島、下葭島欠"
  },
  {
    "zip": "9200015",
    "pref": "石川県",
    "city": "金沢市",
    "addr1": "諸江町",
    "addr2": "",
    "name": "",
    "note": "上丁"
  },
  {
    "zip": "9200016",
    "pref": "石川県",
    "city": "金沢市",
    "addr1": "諸江町",
    "addr2": "",
    "name": "",
    "note": "中丁"
  },
  {
    "zip": "9200017",
    "pref": "石川県",
    "city": "金沢市",
    "addr1": "諸江町",
    "addr2": "",
    "name": "",
    "note": "下丁"
  },
  {
    "zip": "4091213",
    "pref": "山梨県",
    "city": "甲州市",
    "addr1": "塩山牛奥",
    "addr2": "",
    "name": "",
    "note": "５５３２～５５５０、奥野田開拓、嵯峨塩開拓、嵯峨塩温泉"
  },
  {
    "zip": "4091321",
    "pref": "山梨県",
    "city": "甲州市",
    "addr1": "塩山牛奥",
    "addr2": "",
    "name": "",
    "note": "５２８８、５２８８－１、５２８８－３、５２８９、５２８９－２、５２８９－１５"
  },
  {
    "zip": "4091211",
    "pref": "山梨県",
    "city": "甲州市",
    "addr1": "塩山上萩原",
    "addr2": "",
    "name": "",
    "note": "４０５１、４７８３、４７８４、すずらん荘、東電上部ダム"
  },
  {
    "zip": "3998251",
    "pref": "長野県",
    "city": "松本市",
    "addr1": "島内",
    "addr2": "",
    "name": "",
    "note": "９８２０、９８２１、９８２３～９８３０、９８６４番地以上"
  },
  {
    "zip": "3862211",
    "pref": "長野県",
    "city": "須坂市",
    "addr1": "仁礼町",
    "addr2": "",
    "name": "",
    "note": "３１５３－１～３１５３－１１００「峰の原」"
  },
  {
    "zip": "3842304",
    "pref": "長野県",
    "city": "北佐久郡立科町",
    "addr1": "茂田井",
    "addr2": "",
    "name": "",
    "note": "１～５００「２１１番地を除く」「古町」、２５２７～２５２９「土遠」"
  },
  {
    "zip": "4280049",
    "pref": "静岡県",
    "city": "島田市",
    "addr1": "牧之原",
    "addr2": "",
    "name": "",
    "note": "２５０～３４３番地「２５５、２５６、２５８、２５９、２６２、２７６、２９４～３００、３０２～３０４番地を除く」"
  },
  {
    "zip": "4170036",
    "pref": "静岡県",
    "city": "富士市",
    "addr1": "中河原",
    "addr2": "",
    "name": "",
    "note": "６６、８８、９３、１９７、２９２－４、３１５番地"
  },
  {
    "zip": "4380043",
    "pref": "静岡県",
    "city": "磐田市",
    "addr1": "大原",
    "addr2": "",
    "name": "",
    "note": "１番地～２０６１番地、２７５７番地～２７６８番地"
  },
  {
    "zip": "4210405",
    "pref": "静岡県",
    "city": "牧之原市",
    "addr1": "白井",
    "addr2": "",
    "name": "",
    "note": "１２９１～１６８２、１８３９～１８４０番地"
  },
  {
    "zip": "4418156",
    "pref": "愛知県",
    "city": "豊橋市",
    "addr1": "高師町",
    "addr2": "",
    "name": "",
    "note": "北原１、１－５７、５８、７６、８０～８６、４４番地"
  },
  {
    "zip": "4400845",
    "pref": "愛知県",
    "city": "豊橋市",
    "addr1": "",
    "addr2": "",
    "name": "",
    "note": "高師町（北原、その他）、高師町（その他）"
  },
  {
    "zip": "4400075",
    "pref": "愛知県",
    "city": "豊橋市",
    "addr1": "",
    "addr2": "",
    "name": "",
    "note": "花田町官有地（無番地を除く）、花田町西宿（１１０－２、１１０－７、１１０－１０番地を除く）、花田町（無番地）"
  },
  {
    "zip": "4418019",
    "pref": "愛知県",
    "city": "豊橋市",
    "addr1": "花田町",
    "addr2": "",
    "name": "",
    "note": "その他"
  },
  {
    "zip": "4418032",
    "pref": "愛知県",
    "city": "豊橋市",
    "addr1": "花中町",
    "addr2": "",
    "name": "",
    "note": ""
  },
  {
    "zip": "4442451",
    "pref": "愛知県",
    "city": "豊田市",
    "addr1": "岩神町",
    "addr2": "",
    "name": "",
    "note": "足助高等学校"
  },
  {
    "zip": "4411336",
    "pref": "愛知県",
    "city": "新城市",
    "addr1": "富岡",
    "addr2": "",
    "name": "",
    "note": "○○屋敷"
  },
  {
    "zip": "4740061",
    "pref": "愛知県",
    "city": "大府市",
    "addr1": "共和町",
    "addr2": "",
    "name": "",
    "note": "丁目"
  },
  {
    "zip": "4740057",
    "pref": "愛知県",
    "city": "大府市",
    "addr1": "共和町",
    "addr2": "",
    "name": "",
    "note": "キョウワマチ"
  },
  {
    "zip": "5220239",
    "pref": "滋賀県",
    "city": "彦根市",
    "addr1": "宇尾町",
    "addr2": "",
    "name": "",
    "note": "８９７番地及び中島５０５～５１８番地"
  },
  {
    "zip": "6028064",
    "pref": "京都府",
    "city": "京都市上京区",
    "addr1": "一町目",
    "addr2": "",
    "name": "",
    "note": "上長者町通堀川東入、東堀川通上長者町上る、東堀川通中立売通下る"
  },
  {
    "zip": "6028392",
    "pref": "京都府",
    "city": "京都市上京区",
    "addr1": "北町",
    "addr2": "",
    "name": "",
    "note": "御前通五辻上る、御前通今出川上る、御前通今出川上る１丁目、御前通今出川上る２丁目、御前通今出川上る２丁目西入、御前通今出川上る２筋目、御前通今出川上る西入、御前通今出川上る東入、御前通今出川２丁目上る、御前通寺之内下る"
  },
  {
    "zip": "6028414",
    "pref": "京都府",
    "city": "京都市上京区",
    "addr1": "西北小路町",
    "addr2": "",
    "name": "",
    "note": "猪熊通上立売上る、猪熊通寺之内下る、大宮通寺之内下る東入、大宮通寺之内半丁下る東入、大宮通寺之内下る東入１丁目、寺之内通大宮東入下る、寺之内通大宮東入１丁目下る"
  },
  {
    "zip": "6011255",
    "pref": "京都府",
    "city": "京都市左京区",
    "addr1": "上高野東山",
    "addr2": "",
    "name": "",
    "note": "５５、５７－６、６４、６５、７１－１、７１－２１、７２、１８９、１８９－１番地"
  },
  {
    "zip": "6060068",
    "pref": "京都府",
    "city": "京都市左京区",
    "addr1": "八瀬野瀬町",
    "addr2": "",
    "name": "",
    "note": "２７７の２、２７９の１、３～５、２８１の２～９、１１～１８、２０～２２、２４～２６、３２、２８７、３００番地"
  },
  {
    "zip": "6008022",
    "pref": "京都府",
    "city": "京都市下京区",
    "addr1": "稲荷町",
    "addr2": "",
    "name": "",
    "note": "河原町通四条下る、河原町通四条下る２丁目"
  },
  {
    "zip": "6008175",
    "pref": "京都府",
    "city": "京都市下京区",
    "addr1": "烏丸",
    "addr2": "",
    "name": "",
    "note": "２丁目"
  },
  {
    "zip": "6008252",
    "pref": "京都府",
    "city": "京都市下京区",
    "addr1": "川端町",
    "addr2": "",
    "name": "",
    "note": "木津屋橋通堀川西入、堀川通木津屋橋上る"
  },
  {
    "zip": "6008202",
    "pref": "京都府",
    "city": "京都市下京区",
    "addr1": "川端町",
    "addr2": "",
    "name": "",
    "note": "その他"
  },
  {
    "zip": "6008023",
    "pref": "京都府",
    "city": "京都市下京区",
    "addr1": "富永町",
    "addr2": "",
    "name": "",
    "note": "河原町通四条下る２丁目、河原町通高辻上る、河原町通仏光寺下る、河原町通松原上る、河原町通松原上る２丁目、高辻通河原町西入、仏光寺通河原町西入"
  },
  {
    "zip": "5900803",
    "pref": "大阪府",
    "city": "堺市堺区",
    "addr1": "東上野芝町",
    "addr2": "",
    "name": "",
    "note": "１丁"
  },
  {
    "zip": "5938306",
    "pref": "大阪府",
    "city": "堺市西区",
    "addr1": "八田寺町",
    "addr2": "",
    "name": "",
    "note": "４０－１～４０－３番地"
  },
  {
    "zip": "5900158",
    "pref": "大阪府",
    "city": "堺市南区",
    "addr1": "太平寺",
    "addr2": "",
    "name": "",
    "note": "５０８－５、６９６－２～６９６－３、７２４－１、７２５－１、７２６－１、７２７、７２８、７２８－１、７２９、７３０、７３１、７３２、７３３－１～７３３－２、７３５、７８６－３番地"
  },
  {
    "zip": "5970107",
    "pref": "大阪府",
    "city": "貝塚市",
    "addr1": "地蔵堂",
    "addr2": "",
    "name": "",
    "note": "６１１、６９５、７３２、６７５"
  },
  {
    "zip": "5970045",
    "pref": "大阪府",
    "city": "貝塚市",
    "addr1": "三ツ松",
    "addr2": "",
    "name": "",
    "note": "５９６、８９４－１、９１５－４、９２５、９２７－２、９３２－４、９３４～９６８、１０１３－１、１４６４番地"
  },
  {
    "zip": "6300271",
    "pref": "大阪府",
    "city": "東大阪市",
    "addr1": "上石切町",
    "addr2": "",
    "name": "",
    "note": "２丁目８６３、１４５１番地"
  },
  {
    "zip": "6511102",
    "pref": "兵庫県",
    "city": "神戸市北区",
    "addr1": "山田町下谷上",
    "addr2": "",
    "name": "",
    "note": "大上谷、修法ケ原、中一里山「９番地の４、１２番地を除く」、長尾山、再度公園"
  },
  {
    "zip": "6520071",
    "pref": "兵庫県",
    "city": "神戸市北区",
    "addr1": "山田町下谷上",
    "addr2": "",
    "name": "",
    "note": "菊水山、高座川向、中一里山「９番地の４、１２番地」、念仏堂、ひよどり越"
  },
  {
    "zip": "6712202",
    "pref": "兵庫県",
    "city": "姫路市",
    "addr1": "北夢前台",
    "addr2": "",
    "name": "",
    "note": "１丁目１～７７番地"
  },
  {
    "zip": "6780141",
    "pref": "兵庫県",
    "city": "相生市",
    "addr1": "相生",
    "addr2": "",
    "name": "",
    "note": "５１３３番地２～５１８７番地、５３１６番地１～５３１６番地１６７"
  },
  {
    "zip": "6650808",
    "pref": "兵庫県",
    "city": "宝塚市",
    "addr1": "切畑",
    "addr2": "",
    "name": "",
    "note": "長尾山「その他」"
  },
  {
    "zip": "6660006",
    "pref": "兵庫県",
    "city": "川西市",
    "addr1": "萩原台西",
    "addr2": "",
    "name": "",
    "note": "１、２丁目、３丁目１番～２８２番"
  },
  {
    "zip": "6660134",
    "pref": "兵庫県",
    "city": "川西市",
    "addr1": "萩原台西",
    "addr2": "",
    "name": "",
    "note": "３丁目２８３番以上"
  },
  {
    "zip": "6562451",
    "pref": "兵庫県",
    "city": "淡路市",
    "addr1": "野島江崎",
    "addr2": "",
    "name": "",
    "note": "１３、１４番地、１０番地の２、５"
  },
  {
    "zip": "6301124",
    "pref": "奈良県",
    "city": "奈良市",
    "addr1": "中ノ川町",
    "addr2": "",
    "name": "",
    "note": "１０６～３０５、４０５－３、６３８"
  },
  {
    "zip": "6308037",
    "pref": "奈良県",
    "city": "奈良市",
    "addr1": "中町",
    "addr2": "",
    "name": "",
    "note": "５１１５～５１４９、５１７１、５１８３、５１８６、５１９２～５１９６、５１９８～５２１２、５２２７～５２２９、５２３９～５２５７、５２６３、５２６９～５２７１、５２７５、５２７６－４、５２７６－５、５２７７～５２８０、５２８４～５３１２、５３１４、５３１６～５３２７、５３４６、５３４９、５３５１～５３５２、５３５５～５３６２、５３６４～５４２４、５４２６、５４２９～５４３０、５４４５、５４５５、５４６１、５４６３、５４７０、５４７２、５４７５、５４８２～５５２９"
  },
  {
    "zip": "6302168",
    "pref": "奈良県",
    "city": "奈良市",
    "addr1": "菩提山町",
    "addr2": "",
    "name": "",
    "note": "１７３～２５７番地「鉢伏峠」"
  },
  {
    "zip": "6308356",
    "pref": "奈良県",
    "city": "奈良市",
    "addr1": "南新町",
    "addr2": "",
    "name": "",
    "note": "１～３２番地"
  },
  {
    "zip": "6308016",
    "pref": "奈良県",
    "city": "奈良市",
    "addr1": "南新町",
    "addr2": "",
    "name": "",
    "note": "５２～２１２番地"
  },
  {
    "zip": "6496413",
    "pref": "和歌山県",
    "city": "紀の川市",
    "addr1": "竹房",
    "addr2": "",
    "name": "",
    "note": "４５０番地以下"
  },
  {
    "zip": "6496162",
    "pref": "和歌山県",
    "city": "紀の川市",
    "addr1": "竹房",
    "addr2": "",
    "name": "",
    "note": "４５１番地以上"
  },
  {
    "zip": "7200845",
    "pref": "広島県",
    "city": "福山市",
    "addr1": "芦田町福田",
    "addr2": "",
    "name": "",
    "note": "３７６－１０「聖宝寺」"
  },
  {
    "zip": "7201264",
    "pref": "広島県",
    "city": "福山市",
    "addr1": "芦田町福田",
    "addr2": "",
    "name": "",
    "note": "３７６－１０を除く"
  },
  {
    "zip": "7660002",
    "pref": "香川県",
    "city": "仲多度郡琴平町",
    "addr1": "",
    "addr2": "",
    "name": "",
    "note": "琴平町の次に１～４２６番地がくる場合（川東）"
  },
  {
    "zip": "7660001",
    "pref": "香川県",
    "city": "仲多度郡琴平町",
    "addr1": "",
    "addr2": "",
    "name": "",
    "note": "琴平町の次に４２７番地以降がくる場合（川西）"
  },
  {
    "zip": "7983322",
    "pref": "愛媛県",
    "city": "宇和島市",
    "addr1": "津島町下畑地乙",
    "addr2": "",
    "name": "",
    "note": "上槇"
  },
  {
    "zip": "7983321",
    "pref": "愛媛県",
    "city": "宇和島市",
    "addr1": "津島町下畑地",
    "addr2": "",
    "name": "",
    "note": "乙を除く"
  },
  {
    "zip": "7960088",
    "pref": "愛媛県",
    "city": "八幡浜市",
    "addr1": "",
    "addr2": "",
    "name": "",
    "note": "八幡浜市の次に番地がくる場合"
  },
  {
    "zip": "7920846",
    "pref": "愛媛県",
    "city": "新居浜市",
    "addr1": "立川町",
    "addr2": "",
    "name": "",
    "note": "立川山を含む"
  },
  {
    "zip": "7913361",
    "pref": "愛媛県",
    "city": "喜多郡内子町",
    "addr1": "大瀬中央",
    "addr2": "",
    "name": "",
    "note": "鵜川、大久保、乙成、中野、本町１～３"
  },
  {
    "zip": "8080008",
    "pref": "福岡県",
    "city": "北九州市若松区",
    "addr1": "小竹",
    "addr2": "",
    "name": "",
    "note": "１～１９５３、３００６～３００８番地、相川、鬼ケ坂、唐木、椿、脇ノ浦"
  },
  {
    "zip": "8260044",
    "pref": "福岡県",
    "city": "田川市",
    "addr1": "位登",
    "addr2": "",
    "name": "",
    "note": "猪位金４～７区、清美町"
  },
  {
    "zip": "8260045",
    "pref": "福岡県",
    "city": "田川市",
    "addr1": "猪国",
    "addr2": "",
    "name": "",
    "note": "猪位金１～３区"
  },
  {
    "zip": "8420107",
    "pref": "佐賀県",
    "city": "神埼市",
    "addr1": "神埼町鶴",
    "addr2": "",
    "name": "",
    "note": "１～２９９９番地"
  },
  {
    "zip": "8420007",
    "pref": "佐賀県",
    "city": "神埼市",
    "addr1": "神埼町鶴",
    "addr2": "",
    "name": "",
    "note": "３０００番地以降"
  },
  {
    "zip": "8701146",
    "pref": "大分県",
    "city": "大分市",
    "addr1": "曲",
    "addr2": "",
    "name": "",
    "note": "６３５、６３９、６５０、６６９、６７６、６７８、６８９、６９５、７１８、７３３、１４８１、１５５５、１６１８番地"
  },
  {
    "zip": "8700924",
    "pref": "大分県",
    "city": "大分市",
    "addr1": "牧",
    "addr2": "",
    "name": "",
    "note": "１～３丁目、白滝Ｂ・Ｃ、高見"
  },
  {
    "zip": "8770023",
    "pref": "大分県",
    "city": "日田市",
    "addr1": "田島",
    "addr2": "",
    "name": "",
    "note": "大字"
  },
  {
    "zip": "8770025",
    "pref": "大分県",
    "city": "日田市",
    "addr1": "田島",
    "addr2": "",
    "name": "",
    "note": "丁目"
  },
  {
    "zip": "8830104",
    "pref": "宮崎県",
    "city": "日向市",
    "addr1": "東郷町山陰戊",
    "addr2": "",
    "name": "",
    "note": "５１３の１以内"
  },
  {
    "zip": "8920876",
    "pref": "鹿児島県",
    "city": "鹿児島市",
    "addr1": "岡之原町",
    "addr2": "",
    "name": "",
    "note": "８３２の２・４、８５２の３"
  },
  {
    "zip": "8961412",
    "pref": "鹿児島県",
    "city": "薩摩川内市",
    "addr1": "下甑町瀬々野浦",
    "addr2": "",
    "name": "",
    "note": "１７００番地～、内川内"
  },
  {
    "zip": "9000000",
    "pref": "沖縄県",
    "city": "那覇市",
    "addr1": "",
    "addr2": "",
    "name": "",
    "note": "以下に掲載がない場合"
  },
  {
    "zip": "9010154",
    "pref": "沖縄県",
    "city": "那覇市",
    "addr1": "赤嶺",
    "addr2": "",
    "name": "",
    "note": ""
  },
  {
    "zip": "0608621",
    "pref": "北海道",
    "city": "札幌市中央区",
    "addr1": "北一条西",
    "addr2": "６丁目１－２アーバンネット札幌ビル２Ｆ",
    "name": "株式会社　日本経済新聞社　札幌支社",
    "note": ""
  },
  {
    "zip": "0608614",
    "pref": "北海道",
    "city": "札幌市中央区",
    "addr1": "大通西",
    "addr2": "５丁目地下鉄大通駅西側コンコース内",
    "name": "一般財団法人　札幌市交通事業振興公社",
    "note": ""
  },
  {
    "zip": "2308511",
    "pref": "神奈川県",
    "city": "横浜市鶴見区",
    "addr1": "鶴見中央",
    "addr2": "２丁目５－５",
    "name": "株式会社　エーアンドエーマテリアル",
    "note": ""
  }
]
